{
 "generated_at": "2026-07-08T07:29:27Z",
 "sources": [
  {
   "name": "CelesTrak",
   "url": "https://celestrak.org/NORAD/elements/",
   "license": "frei verfügbar; Attribution. Ursprünglich USSPACECOM/Space-Track."
  },
  {
   "name": "GCAT (J. McDowell, planet4589.org)",
   "url": "https://planet4589.org/space/gcat/",
   "license": "CC-BY 4.0"
  }
 ],
 "satellites": [
  {
   "norad": 69177,
   "name": "STRIX-7",
   "intl": "2026-112A",
   "group": "sar",
   "gcat": {
    "class": "B",
    "category": "IMG-R",
    "owner": "SYNSP",
    "state": "J"
   },
   "omm": {
    "OBJECT_NAME": "STRIX-7",
    "OBJECT_ID": "2026-112A",
    "EPOCH": "2026-07-07T17:32:08.508192",
    "MEAN_MOTION": 15.01571839,
    "ECCENTRICITY": 0.0023834,
    "INCLINATION": 44.907,
    "RA_OF_ASC_NODE": 84.541,
    "ARG_OF_PERICENTER": 166.3984,
    "MEAN_ANOMALY": 193.7534,
    "EPHEMERIS_TYPE": 0,
    "CLASSIFICATION_TYPE": "U",
    "NORAD_CAT_ID": 69177,
    "ELEMENT_SET_NO": 999,
    "REV_AT_EPOCH": 696,
    "BSTAR": 0.00023117,
    "MEAN_MOTION_DOT": 0.00002825,
    "MEAN_MOTION_DDOT": 0
   }
  },
  {
   "norad": 69701,
   "name": "STRIX-8",
   "intl": "2026-146A",
   "group": "sar",
   "gcat": {
    "class": "B",
    "category": "IMG-R",
    "owner": "SYNSP",
    "state": "J"
   },
   "omm": {
    "OBJECT_NAME": "STRIX-8",
    "OBJECT_ID": "2026-146A",
    "EPOCH": "2026-07-07T18:47:42.067392",
    "MEAN_MOTION": 15.04392357,
    "ECCENTRICITY": 0.0008398,
    "INCLINATION": 41.9897,
    "RA_OF_ASC_NODE": 54.1514,
    "ARG_OF_PERICENTER": 334.2972,
    "MEAN_ANOMALY": 25.7437,
    "EPHEMERIS_TYPE": 0,
    "CLASSIFICATION_TYPE": "U",
    "NORAD_CAT_ID": 69701,
    "ELEMENT_SET_NO": 999,
    "REV_AT_EPOCH": 166,
    "BSTAR": 0.00023951,
    "MEAN_MOTION_DOT": 0.00003213,
    "MEAN_MOTION_DDOT": 0
   }
  },
  {
   "norad": 37849,
   "name": "SUOMI NPP",
   "intl": "2011-061A",
   "group": "weather",
   "gcat": {
    "class": "C",
    "category": "MET",
    "owner": "GSFC/NOAA",
    "state": "US"
   },
   "omm": {
    "OBJECT_NAME": "SUOMI NPP",
    "OBJECT_ID": "2011-061A",
    "EPOCH": "2026-07-07T18:45:19.351008",
    "MEAN_MOTION": 14.19521584,
    "ECCENTRICITY": 0.0000567,
    "INCLINATION": 98.7955,
    "RA_OF_ASC_NODE": 129.5172,
    "ARG_OF_PERICENTER": 270.2245,
    "MEAN_ANOMALY": 89.8866,
    "EPHEMERIS_TYPE": 0,
    "CLASSIFICATION_TYPE": "U",
    "NORAD_CAT_ID": 37849,
    "ELEMENT_SET_NO": 999,
    "REV_AT_EPOCH": 76136,
    "BSTAR": 0.000047617,
    "MEAN_MOTION_DOT": 5.6e-7,
    "MEAN_MOTION_DDOT": 0
   }
  },
  {
   "norad": 54754,
   "name": "SWOT",
   "intl": "2022-173A",
   "group": "resource",
   "gcat": {
    "class": "C",
    "category": "EOSCI",
    "owner": "CNES/JPL",
    "state": "F"
   },
   "omm": {
    "OBJECT_NAME": "SWOT",
    "OBJECT_ID": "2022-173A",
    "EPOCH": "2026-07-07T17:02:22.331616",
    "MEAN_MOTION": 14.00171867,
    "ECCENTRICITY": 0.0000281,
    "INCLINATION": 77.6104,
    "RA_OF_ASC_NODE": 7.6033,
    "ARG_OF_PERICENTER": 77.5454,
    "MEAN_ANOMALY": 282.5729,
    "EPHEMERIS_TYPE": 0,
    "CLASSIFICATION_TYPE": "U",
    "NORAD_CAT_ID": 54754,
    "ELEMENT_SET_NO": 999,
    "REV_AT_EPOCH": 18202,
    "BSTAR": -0.000010313,
    "MEAN_MOTION_DOT": -1.8e-7,
    "MEAN_MOTION_DDOT": 0
   }
  },
  {
   "norad": 36605,
   "name": "TANDEM-X",
   "intl": "2010-030A",
   "group": "resource",
   "gcat": {
    "class": null,
    "category": "IMG-R",
    "owner": "DLR2/EASF",
    "state": "D"
   },
   "omm": {
    "OBJECT_NAME": "TANDEM-X",
    "OBJECT_ID": "2010-030A",
    "EPOCH": "2026-07-07T11:29:58.986816",
    "MEAN_MOTION": 15.19154052,
    "ECCENTRICITY": 0.0001887,
    "INCLINATION": 97.4457,
    "RA_OF_ASC_NODE": 195.8973,
    "ARG_OF_PERICENTER": 94.3019,
    "MEAN_ANOMALY": 265.8431,
    "EPHEMERIS_TYPE": 0,
    "CLASSIFICATION_TYPE": "U",
    "NORAD_CAT_ID": 36605,
    "ELEMENT_SET_NO": 999,
    "REV_AT_EPOCH": 88972,
    "BSTAR": 0.000021566,
    "MEAN_MOTION_DOT": 0.00000386,
    "MEAN_MOTION_DDOT": 0
   }
  },
  {
   "norad": 25397,
   "name": "TECHSAT 1B (GO-32)",
   "intl": "1998-043D",
   "group": "resource",
   "gcat": {
    "class": "A",
    "category": "COM",
    "owner": "TECN",
    "state": "IL"
   },
   "omm": {
    "OBJECT_NAME": "TECHSAT 1B (GO-32)",
    "OBJECT_ID": "1998-043D",
    "EPOCH": "2026-07-06T22:38:06.695520",
    "MEAN_MOTION": 14.24432204,
    "ECCENTRICITY": 0.00019427,
    "INCLINATION": 99.0077,
    "RA_OF_ASC_NODE": 181.2008,
    "ARG_OF_PERICENTER": 128.2186,
    "MEAN_ANOMALY": 231.9167,
    "EPHEMERIS_TYPE": 0,
    "CLASSIFICATION_TYPE": "U",
    "NORAD_CAT_ID": 25397,
    "ELEMENT_SET_NO": 999,
    "REV_AT_EPOCH": 45414,
    "BSTAR": 0.000037960253,
    "MEAN_MOTION_DOT": 4.1e-7,
    "MEAN_MOTION_DDOT": 0
   }
  },
  {
   "norad": 25994,
   "name": "TERRA",
   "intl": "1999-068A",
   "group": "resource",
   "gcat": {
    "class": "C",
    "category": "IMG",
    "owner": "GSFC",
    "state": "US"
   },
   "omm": {
    "OBJECT_NAME": "TERRA",
    "OBJECT_ID": "1999-068A",
    "EPOCH": "2026-07-07T18:41:11.126400",
    "MEAN_MOTION": 14.61119717,
    "ECCENTRICITY": 0.0003059,
    "INCLINATION": 97.9444,
    "RA_OF_ASC_NODE": 237.5073,
    "ARG_OF_PERICENTER": 137.6111,
    "MEAN_ANOMALY": 341.483,
    "EPHEMERIS_TYPE": 0,
    "CLASSIFICATION_TYPE": "U",
    "NORAD_CAT_ID": 25994,
    "ELEMENT_SET_NO": 999,
    "REV_AT_EPOCH": 41261,
    "BSTAR": 0.000071539,
    "MEAN_MOTION_DOT": 0.00000307,
    "MEAN_MOTION_DDOT": 0
   }
  },
  {
   "norad": 31698,
   "name": "TERRASAR-X",
   "intl": "2007-026A",
   "group": "resource",
   "gcat": {
    "class": null,
    "category": "IMG-R",
    "owner": "DLR2/EASF",
    "state": "D"
   },
   "omm": {
    "OBJECT_NAME": "TERRASAR-X",
    "OBJECT_ID": "2007-026A",
    "EPOCH": "2026-07-07T11:29:59.023968",
    "MEAN_MOTION": 15.19153986,
    "ECCENTRICITY": 0.0001878,
    "INCLINATION": 97.4461,
    "RA_OF_ASC_NODE": 195.8972,
    "ARG_OF_PERICENTER": 86.954,
    "MEAN_ANOMALY": 273.1909,
    "EPHEMERIS_TYPE": 0,
    "CLASSIFICATION_TYPE": "U",
    "NORAD_CAT_ID": 31698,
    "ELEMENT_SET_NO": 999,
    "REV_AT_EPOCH": 5630,
    "BSTAR": 0.000014624,
    "MEAN_MOTION_DOT": 0.0000024,
    "MEAN_MOTION_DDOT": 0
   }
  },
  {
   "norad": 33396,
   "name": "THEOS",
   "intl": "2008-049A",
   "group": "resource",
   "gcat": {
    "class": "C",
    "category": "IMG",
    "owner": "GISTDA",
    "state": "T"
   },
   "omm": {
    "OBJECT_NAME": "THEOS",
    "OBJECT_ID": "2008-049A",
    "EPOCH": "2026-07-07T21:27:40.164768",
    "MEAN_MOTION": 14.20135146,
    "ECCENTRICITY": 0.0001137,
    "INCLINATION": 98.5556,
    "RA_OF_ASC_NODE": 245.5046,
    "ARG_OF_PERICENTER": 84.6876,
    "MEAN_ANOMALY": 275.4431,
    "EPHEMERIS_TYPE": 0,
    "CLASSIFICATION_TYPE": "U",
    "NORAD_CAT_ID": 33396,
    "ELEMENT_SET_NO": 999,
    "REV_AT_EPOCH": 92090,
    "BSTAR": -0.00013391,
    "MEAN_MOTION_DOT": -0.00000328,
    "MEAN_MOTION_DDOT": 0
   }
  },
  {
   "norad": 55973,
   "name": "TIANMU-1 03",
   "intl": "2023-039A",
   "group": "weather",
   "gcat": {
    "class": "B",
    "category": "MET",
    "owner": "TIANMU",
    "state": "CN"
   },
   "omm": {
    "OBJECT_NAME": "TIANMU-1 03",
    "OBJECT_ID": "2023-039A",
    "EPOCH": "2026-07-07T19:20:28.541760",
    "MEAN_MOTION": 15.47892574,
    "ECCENTRICITY": 0.0003194,
    "INCLINATION": 97.5247,
    "RA_OF_ASC_NODE": 3.5917,
    "ARG_OF_PERICENTER": 45.1577,
    "MEAN_ANOMALY": 314.9932,
    "EPHEMERIS_TYPE": 0,
    "CLASSIFICATION_TYPE": "U",
    "NORAD_CAT_ID": 55973,
    "ELEMENT_SET_NO": 999,
    "REV_AT_EPOCH": 18402,
    "BSTAR": 0.00019308,
    "MEAN_MOTION_DOT": 0.00009958,
    "MEAN_MOTION_DDOT": 0
   }
  }
 ]
}
